{
    "links": {
        "self": "http://www.neowsapp.com/rest/v1/neo/3836199?api_key=iIulBulltgU6a56xZRHN4H3l9WmuAYTsLGpBGhQ2"
    },
    "id": "3836199",
    "neo_reference_id": "3836199",
    "name": "(2018 VV7)",
    "designation": "2018 VV7",
    "nasa_jpl_url": "http://ssd.jpl.nasa.gov/sbdb.cgi?sstr=3836199",
    "absolute_magnitude_h": 26.2,
    "estimated_diameter": {
        "kilometers": {
            "estimated_diameter_min": 0.0152951935,
            "estimated_diameter_max": 0.0342010925
        },
        "meters": {
            "estimated_diameter_min": 15.2951935344,
            "estimated_diameter_max": 34.201092472
        },
        "miles": {
            "estimated_diameter_min": 0.0095039897,
            "estimated_diameter_max": 0.021251567
        },
        "feet": {
            "estimated_diameter_min": 50.1810827555,
            "estimated_diameter_max": 112.2083122258
        }
    },
    "is_potentially_hazardous_asteroid": false,
    "close_approach_data": [
        {
            "close_approach_date": "2018-11-15",
            "close_approach_date_full": "2018-Nov-15 08:05",
            "epoch_date_close_approach": 1542269100000,
            "relative_velocity": {
                "kilometers_per_second": "8.2514510426",
                "kilometers_per_hour": "29705.2237533795",
                "miles_per_hour": "18457.6708372041"
            },
            "miss_distance": {
                "astronomical": "0.0311466534",
                "lunar": "12.1160481726",
                "kilometers": "4659473.006268258",
                "miles": "2895262.2709996404"
            },
            "orbiting_body": "Earth"
        }
    ],
    "orbital_data": {
        "orbit_id": "1",
        "orbit_determination_date": "2018-11-12 09:42:08",
        "first_observation_date": "2018-11-06",
        "last_observation_date": "2018-11-12",
        "data_arc_in_days": 6,
        "observations_used": 18,
        "orbit_uncertainty": "8",
        "minimum_orbit_intersection": ".0181308",
        "jupiter_tisserand_invariant": "3.737",
        "epoch_osculation": "2458430.5",
        "eccentricity": ".4896316396454733",
        "semi_major_axis": "1.941900474483786",
        "inclination": "7.074628669805531",
        "ascending_node_longitude": "54.34377327063584",
        "orbital_period": "988.4139783404896",
        "perihelion_distance": ".9910845611339675",
        "perihelion_argument": "20.12566057256389",
        "aphelion_distance": "2.892716387833605",
        "perihelion_time": "2458455.011988126235",
        "mean_anomaly": "351.0722471365082",
        "mean_motion": ".3642198591772515",
        "equinox": "J2000",
        "orbit_class": {
            "orbit_class_type": "APO",
            "orbit_class_description": "Near-Earth asteroid orbits which cross the Earth’s orbit similar to that of 1862 Apollo",
            "orbit_class_range": "a (semi-major axis) > 1.0 AU; q (perihelion) < 1.017 AU"
        }
    },
    "is_sentry_object": false
}